CCSDS_OMM_VERS = 2.0
CREATION_DATE  = 
ORIGINATOR     = 

OBJECT_NAME    = STARLINK-36332
OBJECT_ID      = 2026-034N
CENTER_NAME    = EARTH
REF_FRAME      = TEME
TIME_SYSTEM    = UTC
MEAN_ELEMENT_THEORY = SGP/SGP4

EPOCH          = 2026-03-09T23:24:43.416864
MEAN_MOTION    = 15.81009780
ECCENTRICITY   = .0001044
INCLINATION    = 53.1583
RA_OF_ASC_NODE = 209.8184
ARG_OF_PERICENTER = 147.4373
MEAN_ANOMALY   = 212.6714

EPHEMERIS_TYPE = 0
CLASSIFICATION_TYPE = U
NORAD_CAT_ID   = 67862
ELEMENT_SET_NO = 999
REV_AT_EPOCH   = 398
BSTAR          = .14792E-2
MEAN_MOTION_DOT = .303666E-2
MEAN_MOTION_DDOT = 0

CCSDS_OMM_VERS = 2.0
CREATION_DATE  = 
ORIGINATOR     = 

OBJECT_NAME    = STARLINK-36835
OBJECT_ID      = 2026-034P
CENTER_NAME    = EARTH
REF_FRAME      = TEME
TIME_SYSTEM    = UTC
MEAN_ELEMENT_THEORY = SGP/SGP4

EPOCH          = 2026-03-09T23:23:38.628960
MEAN_MOTION    = 15.80997723
ECCENTRICITY   = .0000679
INCLINATION    = 53.1591
RA_OF_ASC_NODE = 209.8124
ARG_OF_PERICENTER = 147.2336
MEAN_ANOMALY   = 212.8729

EPHEMERIS_TYPE = 0
CLASSIFICATION_TYPE = U
NORAD_CAT_ID   = 67863
ELEMENT_SET_NO = 999
REV_AT_EPOCH   = 398
BSTAR          = .13538E-2
MEAN_MOTION_DOT = .276833E-2
MEAN_MOTION_DDOT = 0

CCSDS_OMM_VERS = 2.0
CREATION_DATE  = 
ORIGINATOR     = 

OBJECT_NAME    = STARLINK-36831
OBJECT_ID      = 2026-034Q
CENTER_NAME    = EARTH
REF_FRAME      = TEME
TIME_SYSTEM    = UTC
MEAN_ELEMENT_THEORY = SGP/SGP4

EPOCH          = 2026-03-09T23:22:34.763808
MEAN_MOTION    = 15.80942785
ECCENTRICITY   = .0002495
INCLINATION    = 53.1586
RA_OF_ASC_NODE = 209.8075
ARG_OF_PERICENTER = 33.1472
MEAN_ANOMALY   = 326.9707

EPHEMERIS_TYPE = 0
CLASSIFICATION_TYPE = U
NORAD_CAT_ID   = 67864
ELEMENT_SET_NO = 999
REV_AT_EPOCH   = 398
BSTAR          = .11041E-2
MEAN_MOTION_DOT = .223678E-2
MEAN_MOTION_DDOT = 0

CCSDS_OMM_VERS = 2.0
CREATION_DATE  = 
ORIGINATOR     = 

OBJECT_NAME    = STARLINK-36738
OBJECT_ID      = 2026-034R
CENTER_NAME    = EARTH
REF_FRAME      = TEME
TIME_SYSTEM    = UTC
MEAN_ELEMENT_THEORY = SGP/SGP4

EPOCH          = 2026-03-09T23:21:30.064896
MEAN_MOTION    = 15.80941347
ECCENTRICITY   = .0002586
INCLINATION    = 53.1587
RA_OF_ASC_NODE = 209.8021
ARG_OF_PERICENTER = 41.6231
MEAN_ANOMALY   = 318.4988

EPHEMERIS_TYPE = 0
CLASSIFICATION_TYPE = U
NORAD_CAT_ID   = 67865
ELEMENT_SET_NO = 999
REV_AT_EPOCH   = 398
BSTAR          = .11847E-2
MEAN_MOTION_DOT = .240511E-2
MEAN_MOTION_DDOT = 0

CCSDS_OMM_VERS = 2.0
CREATION_DATE  = 
ORIGINATOR     = 

OBJECT_NAME    = STARLINK-36780
OBJECT_ID      = 2026-034S
CENTER_NAME    = EARTH
REF_FRAME      = TEME
TIME_SYSTEM    = UTC
MEAN_ELEMENT_THEORY = SGP/SGP4

EPOCH          = 2026-03-09T20:18:20.185344
MEAN_MOTION    = 15.80982669
ECCENTRICITY   = .000075
INCLINATION    = 53.1594
RA_OF_ASC_NODE = 210.4298
ARG_OF_PERICENTER = 150.1634
MEAN_ANOMALY   = 209.9431

EPHEMERIS_TYPE = 0
CLASSIFICATION_TYPE = U
NORAD_CAT_ID   = 67866
ELEMENT_SET_NO = 999
REV_AT_EPOCH   = 396
BSTAR          = .14213E-2
MEAN_MOTION_DOT = .290943E-2
MEAN_MOTION_DDOT = 0

CCSDS_OMM_VERS = 2.0
CREATION_DATE  = 
ORIGINATOR     = 

OBJECT_NAME    = STARLINK-36761
OBJECT_ID      = 2026-034T
CENTER_NAME    = EARTH
REF_FRAME      = TEME
TIME_SYSTEM    = UTC
MEAN_ELEMENT_THEORY = SGP/SGP4

EPOCH          = 2026-03-09T23:19:19.600032
MEAN_MOTION    = 15.80981570
ECCENTRICITY   = .0000797
INCLINATION    = 53.1594
RA_OF_ASC_NODE = 209.7917
ARG_OF_PERICENTER = 107.4812
MEAN_ANOMALY   = 252.6298

EPHEMERIS_TYPE = 0
CLASSIFICATION_TYPE = U
NORAD_CAT_ID   = 67867
ELEMENT_SET_NO = 999
REV_AT_EPOCH   = 398
BSTAR          = .12235E-2
MEAN_MOTION_DOT = .24913E-2
MEAN_MOTION_DDOT = 0

CCSDS_OMM_VERS = 2.0
CREATION_DATE  = 
ORIGINATOR     = 

OBJECT_NAME    = STARLINK-36762
OBJECT_ID      = 2026-034U
CENTER_NAME    = EARTH
REF_FRAME      = TEME
TIME_SYSTEM    = UTC
MEAN_ELEMENT_THEORY = SGP/SGP4

EPOCH          = 2026-03-09T23:18:14.960736
MEAN_MOTION    = 15.80984732
ECCENTRICITY   = .0000881
INCLINATION    = 53.1590
RA_OF_ASC_NODE = 209.7873
ARG_OF_PERICENTER = 73.3062
MEAN_ANOMALY   = 286.8058

EPHEMERIS_TYPE = 0
CLASSIFICATION_TYPE = U
NORAD_CAT_ID   = 67868
ELEMENT_SET_NO = 999
REV_AT_EPOCH   = 398
BSTAR          = .13663E-2
MEAN_MOTION_DOT = .279298E-2
MEAN_MOTION_DDOT = 0

CCSDS_OMM_VERS = 2.0
CREATION_DATE  = 
ORIGINATOR     = 

OBJECT_NAME    = STARLINK-36779
OBJECT_ID      = 2026-034V
CENTER_NAME    = EARTH
REF_FRAME      = TEME
TIME_SYSTEM    = UTC
MEAN_ELEMENT_THEORY = SGP/SGP4

EPOCH          = 2026-03-09T23:17:09.914496
MEAN_MOTION    = 15.81033314
ECCENTRICITY   = .0000619
INCLINATION    = 53.1592
RA_OF_ASC_NODE = 209.7808
ARG_OF_PERICENTER = 57.4077
MEAN_ANOMALY   = 302.7006

EPHEMERIS_TYPE = 0
CLASSIFICATION_TYPE = U
NORAD_CAT_ID   = 67869
ELEMENT_SET_NO = 999
REV_AT_EPOCH   = 398
BSTAR          = .19236E-2
MEAN_MOTION_DOT = .400045E-2
MEAN_MOTION_DDOT = 0

CCSDS_OMM_VERS = 2.0
CREATION_DATE  = 
ORIGINATOR     = 

OBJECT_NAME    = STARLINK-36770
OBJECT_ID      = 2026-034W
CENTER_NAME    = EARTH
REF_FRAME      = TEME
TIME_SYSTEM    = UTC
MEAN_ELEMENT_THEORY = SGP/SGP4

EPOCH          = 2026-03-09T23:15:00.290304
MEAN_MOTION    = 15.81039871
ECCENTRICITY   = .0000503
INCLINATION    = 53.1593
RA_OF_ASC_NODE = 209.7708
ARG_OF_PERICENTER = 102.3171
MEAN_ANOMALY   = 257.7908

EPHEMERIS_TYPE = 0
CLASSIFICATION_TYPE = U
NORAD_CAT_ID   = 67870
ELEMENT_SET_NO = 999
REV_AT_EPOCH   = 398
BSTAR          = .18656E-2
MEAN_MOTION_DOT = .387526E-2
MEAN_MOTION_DDOT = 0

CCSDS_OMM_VERS = 2.0
CREATION_DATE  = 
ORIGINATOR     = 

OBJECT_NAME    = STARLINK-36769
OBJECT_ID      = 2026-034X
CENTER_NAME    = EARTH
REF_FRAME      = TEME
TIME_SYSTEM    = UTC
MEAN_ELEMENT_THEORY = SGP/SGP4

EPOCH          = 2026-03-09T23:16:05.092896
MEAN_MOTION    = 15.81038036
ECCENTRICITY   = .000073
INCLINATION    = 53.1594
RA_OF_ASC_NODE = 209.7757
ARG_OF_PERICENTER = 45.3612
MEAN_ANOMALY   = 314.7471

EPHEMERIS_TYPE = 0
CLASSIFICATION_TYPE = U
NORAD_CAT_ID   = 67871
ELEMENT_SET_NO = 999
REV_AT_EPOCH   = 398
BSTAR          = .19112E-2
MEAN_MOTION_DOT = .397417E-2
MEAN_MOTION_DDOT = 0

CCSDS_OMM_VERS = 2.0
CREATION_DATE  = 
ORIGINATOR     = 

OBJECT_NAME    = STARLINK-36786
OBJECT_ID      = 2026-034Y
CENTER_NAME    = EARTH
REF_FRAME      = TEME
TIME_SYSTEM    = UTC
MEAN_ELEMENT_THEORY = SGP/SGP4

EPOCH          = 2026-03-09T23:13:55.381440
MEAN_MOTION    = 15.81036760
ECCENTRICITY   = .0000285
INCLINATION    = 53.1593
RA_OF_ASC_NODE = 209.7664
ARG_OF_PERICENTER = 56.1924
MEAN_ANOMALY   = 303.9126

EPHEMERIS_TYPE = 0
CLASSIFICATION_TYPE = U
NORAD_CAT_ID   = 67872
ELEMENT_SET_NO = 999
REV_AT_EPOCH   = 398
BSTAR          = .19232E-2
MEAN_MOTION_DOT = .40004E-2
MEAN_MOTION_DDOT = 0

CCSDS_OMM_VERS = 2.0
CREATION_DATE  = 
ORIGINATOR     = 

OBJECT_NAME    = STARLINK-36783
OBJECT_ID      = 2026-034Z
CENTER_NAME    = EARTH
REF_FRAME      = TEME
TIME_SYSTEM    = UTC
MEAN_ELEMENT_THEORY = SGP/SGP4

EPOCH          = 2026-03-09T23:12:50.798304
MEAN_MOTION    = 15.81057666
ECCENTRICITY   = .0000721
INCLINATION    = 53.1593
RA_OF_ASC_NODE = 209.7602
ARG_OF_PERICENTER = 55.7064
MEAN_ANOMALY   = 304.4027

EPHEMERIS_TYPE = 0
CLASSIFICATION_TYPE = U
NORAD_CAT_ID   = 67873
ELEMENT_SET_NO = 999
REV_AT_EPOCH   = 398
BSTAR          = .2166E-2
MEAN_MOTION_DOT = .453917E-2
MEAN_MOTION_DDOT = 0

