STARLINK-36332          
1 67862U 26034N   26068.97550251  .00303666  00000+0  14792-2 0  9998
2 67862  53.1583 209.8184 0001044 147.4373 212.6714 15.81009780  3988
STARLINK-36835          
1 67863U 26034P   26068.97475265  .00276833  00000+0  13538-2 0  9992
2 67863  53.1591 209.8124 0000679 147.2336 212.8729 15.80997723  3982
STARLINK-36831          
1 67864U 26034Q   26068.97401347  .00223678  00000+0  11041-2 0  9999
2 67864  53.1586 209.8075 0002495  33.1472 326.9707 15.80942785  3985
STARLINK-36738          
1 67865U 26034R   26068.97326464  .00240511  00000+0  11847-2 0  9995
2 67865  53.1587 209.8021 0002586  41.6231 318.4988 15.80941347  3986
STARLINK-36780          
1 67866U 26034S   26068.84606696  .00290943  00000+0  14213-2 0  9994
2 67866  53.1594 210.4298 0000750 150.1634 209.9431 15.80982669  3960
STARLINK-36761          
1 67867U 26034T   26068.97175463  .00249130  00000+0  12235-2 0  9996
2 67867  53.1594 209.7917 0000797 107.4812 252.6298 15.80981570  3982
STARLINK-36762          
1 67868U 26034U   26068.97100649  .00279298  00000+0  13663-2 0  9995
2 67868  53.1590 209.7873 0000881  73.3062 286.8058 15.80984732  3988
STARLINK-36779          
1 67869U 26034V   26068.97025364  .00400045  00000+0  19236-2 0  9994
2 67869  53.1592 209.7808 0000619  57.4077 302.7006 15.81033314  3980
STARLINK-36770          
1 67870U 26034W   26068.96875336  .00387526  00000+0  18656-2 0  9990
2 67870  53.1593 209.7708 0000503 102.3171 257.7908 15.81039871  3983
STARLINK-36769          
1 67871U 26034X   26068.96950339  .00397417  00000+0  19112-2 0  9996
2 67871  53.1594 209.7757 0000730  45.3612 314.7471 15.81038036  3988
STARLINK-36786          
1 67872U 26034Y   26068.96800210  .00400040  00000+0  19232-2 0  9999
2 67872  53.1593 209.7664 0000285  56.1924 303.9126 15.81036760  3985
STARLINK-36783          
1 67873U 26034Z   26068.96725461  .00453917  00000+0  21660-2 0  9993
2 67873  53.1593 209.7602 0000721  55.7064 304.4027 15.81057666  3987
